NUSAT-50 (NANCY ROMAN)  
1 60493U 24149AB  26068.80227738  .00012094  00000+0  42252-3 0  9994
2 60493  97.3817 150.7693 0002523 238.0469 122.0527 15.29713355 86930
STARLINK-35466          
1 66457U 25262B   26068.03297421  .00033208  00000+0  12113-2 0  9990
2 66457  43.0029 300.0829 0001327 249.8774 110.1935 15.27567876 18805
